H1 CPF  1  DGF 2022 02 01 10  5321 larets     NONE      
H2   304206 5557    27944 2022 02 01 00 00 00 2022 02 08 00 00 00    30 1 1  0 0 0
H5  0.0650
H9
10 0 59615      0.000000  0        346170.501       -963537.242       6981321.026
10 0 59615     30.000000  0        149269.739      -1077221.229       6971961.065
10 0 59615     60.000000  0        -48274.970      -1188953.214       6955500.538
10 0 59615     90.000000  0       -246255.135      -1298617.979       6931956.868
10 0 59615    120.000000  0       -444461.363      -1406103.326       6901354.627
10 0 59615    150.000000  0       -642683.585      -1511300.183       6863725.506
10 0 59615    180.000000  0       -840711.272      -1614102.719       6819108.283
10 0 59615    210.000000  0      -1038333.657      -1714408.447       6767548.777
10 0 59615    240.000000  0      -1235339.956      -1812118.323       6709099.809
10 0 59615    270.000000  0      -1431519.587      -1907136.841       6643821.142
10 0 59615    300.000000  0      -1626662.396      -1999372.126       6571779.429
10 0 59615    330.000000  0      -1820558.874      -2088736.020       6493048.150
10 0 59615    360.000000  0      -2013000.384      -2175144.166       6407707.540
10 0 59615    390.000000  0      -2203779.384      -2258516.091       6315844.515
10 0 59615    420.000000  0      -2392689.648      -2338775.275       6217552.595
10 0 59615    450.000000  0      -2579526.497      -2415849.234       6112931.811
10 0 59615    480.000000  0      -2764087.022      -2489669.577       6002088.612
10 0 59615    510.000000  0      -2946170.311      -2560172.076       5885135.755
10 0 59615    540.000000  0      -3125577.668      -2627296.716       5762192.195
10 0 59615    570.000000  0      -3302112.833      -2690987.745       5633382.960
10 0 59615    600.000000  0      -3475582.193      -2751193.722       5498839.035
10 0 59615    630.000000  0      -3645794.999      -2807867.557       5358697.229
10 0 59615    660.000000  0      -3812563.579      -2860966.549       5213100.042
10 0 59615    690.000000  0      -3975703.546      -2910452.414       5062195.520
10 0 59615    720.000000  0      -4135034.005      -2956291.311       4906137.112
10 0 59615    750.000000  0      -4290377.757      -2998453.860       4745083.512
10 0 59615    780.000000  0      -4441561.496      -3036915.158       4579198.507
10 0 59615    810.000000  0      -4588416.011      -3071654.787       4408650.809
10 0 59615    840.000000  0      -4730776.371      -3102656.817       4233613.890
10 0 59615    870.000000  0      -4868482.122      -3129909.806       4054265.805
10 0 59615    900.000000  0      -5001377.463      -3153406.795       3870789.020
10 0 59615    930.000000  0      -5129311.432      -3173145.292       3683370.222
10 0 59615    960.000000  0      -5252138.080      -3189127.259       3492200.141
10 0 59615    990.000000  0      -5369716.645      -3201359.088       3297473.348
10 0 59615   1020.000000  0      -5481911.717      -3209851.577       3099388.066
10 0 59615   1050.000000  0      -5588593.401      -3214619.895       2898145.963
10 0 59615   1080.000000  0      -5689637.468      -3215683.547       2693951.947
10 0 59615   1110.000000  0      -5784925.509      -3213066.328       2487013.953
10 0 59615   1140.000000  0      -5874345.074      -3206796.280       2277542.735
10 0 59615   1170.000000  0      -5957789.807      -3196905.637       2065751.643
10 0 59615   1200.000000  0      -6035159.580      -3183430.765       1851856.402
10 0 59615   1230.000000  0      -6106360.614      -3166412.101       1636074.891
10 0 59615   1260.000000  0      -6171305.588      -3145894.076       1418626.916
10 0 59615   1290.000000  0      -6229913.753      -3121925.050       1199733.983
10 0 59615   1320.000000  0      -6282111.028      -3094557.227        979619.072
10 0 59615   1350.000000  0      -6327830.097      -3063846.578        758506.403
10 0 59615   1380.000000  0      -6367010.494      -3029852.750        536621.210
10 0 59615   1410.000000  0      -6399598.683      -2992638.984        314189.500
10 0 59615   1440.000000  0      -6425548.130      -2952272.011         91437.819
10 0 59615   1470.000000  0      -6444819.366      -2908821.957       -131406.983
10 0 59615   1500.000000  0      -6457380.037      -2862362.239       -354117.991
10 0 59615   1530.000000  0      -6463204.953      -2812969.453       -576468.465
10 0 59615   1560.000000  0      -6462276.122      -2760723.268       -798232.071
10 0 59615   1590.000000  0      -6454582.777      -2705706.307      -1019183.119
10 0 59615   1620.000000  0      -6440121.397      -2648004.032      -1239096.797
10 0 59615   1650.000000  0      -6418895.714      -2587704.620      -1457749.400
10 0 59615   1680.000000  0      -6390916.720      -2524898.845      -1674918.563
10 0 59615   1710.000000  0      -6356202.662      -2459679.949      -1890383.487
10 0 59615   1740.000000  0      -6314779.029      -2392143.512      -2103925.171
10 0 59615   1770.000000  0      -6266678.529      -2322387.325      -2315326.627
10 0 59615   1800.000000  0      -6211941.064      -2250511.255      -2524373.114
10 0 59615   1830.000000  0      -6150613.692      -2176617.107      -2730852.346
10 0 59615   1860.000000  0      -6082750.577      -2100808.495      -2934554.717
10 0 59615   1890.000000  0      -6008412.943      -2023190.696      -3135273.512
10 0 59615   1920.000000  0      -5927669.006      -1943870.517      -3332805.115
10 0 59615   1950.000000  0      -5840593.905      -1862956.149      -3526949.213
10 0 59615   1980.000000  0      -5747269.629      -1780557.029      -3717509.001
10 0 59615   2010.000000  0      -5647784.933      -1696783.697      -3904291.373
10 0 59615   2040.000000  0      -5542235.243      -1611747.656      -4087107.122
10 0 59615   2070.000000  0      -5430722.566      -1525561.222      -4265771.125
10 0 59615   2100.000000  0      -5313355.375      -1438337.391      -4440102.529
10 0 59615   2130.000000  0      -5190248.506      -1350189.684      -4609924.928
10 0 59615   2160.000000  0      -5061523.033      -1261232.012      -4775066.541
10 0 59615   2190.000000  0      -4927306.142      -1171578.530      -4935360.378
10 0 59615   2220.000000  0      -4787730.998      -1081343.494      -5090644.406
10 0 59615   2250.000000  0      -4642936.608       -990641.121      -5240761.702
10 0 59615   2280.000000  0      -4493067.672       -899585.448      -5385560.607
10 0 59615   2310.000000  0      -4338274.439       -808290.196      -5524894.871
10 0 59615   2340.000000  0      -4178712.549       -716868.625      -5658623.795
10 0 59615   2370.000000  0      -4014542.872       -625433.407      -5786612.364
10 0 59615   2400.000000  0      -3845931.339       -534096.482      -5908731.377
10 0 59615   2430.000000  0      -3673048.776       -442968.929      -6024857.568
10 0 59615   2460.000000  0      -3496070.727       -352160.835      -6134873.722
10 0 59615   2490.000000  0      -3315177.269       -261781.167      -6238668.786
10 0 59615   2520.000000  0      -3130552.838       -171937.642      -6336137.971
10 0 59615   2550.000000  0      -2942386.033        -82736.606      -6427182.858
10 0 59615   2580.000000  0      -2750869.428          5717.090      -6511711.485
10 0 59615   2610.000000  0      -2556199.367         93320.207      -6589638.439
10 0 59615   2640.000000  0      -2358575.768        179971.235      -6660884.928
10 0 59615   2670.000000  0      -2158201.919        265570.506      -6725378.861
10 0 59615   2700.000000  0      -1955284.269        350020.306      -6783054.910
10 0 59615   2730.000000  0      -1750032.226        433224.980      -6833854.573
10 0 59615   2760.000000  0      -1542657.939        515091.045      -6877726.233
10 0 59615   2790.000000  0      -1333376.083        595527.286      -6914625.208
10 0 59615   2820.000000  0      -1122403.643        674444.864      -6944513.786
10 0 59615   2850.000000  0       -909959.690        751757.405      -6967361.270
10 0 59615   2880.000000  0       -696265.162        827381.097      -6983143.996
10 0 59615   2910.000000  0       -481542.640        901234.775      -6991845.368
10 0 59615   2940.000000  0       -266016.123        973240.009      -6993455.867
10 0 59615   2970.000000  0        -49910.802       1043321.182      -6987973.072
10 0 59615   3000.000000  0        166547.169       1111405.570      -6975401.668
10 0 59615   3030.000000  0        383130.907       1177423.417      -6955753.450
10 0 59615   3060.000000  0        599613.038       1241308.007      -6929047.323
10 0 59615   3090.000000  0        815765.936       1302995.737      -6895309.280
10 0 59615   3120.000000  0       1031361.960       1362426.178      -6854572.379
10 0 59615   3150.000000  0       1246173.690       1419542.135      -6806876.716
10 0 59615   3180.000000  0       1459974.155       1474289.701      -6752269.391
10 0 59615   3210.000000  0       1672537.077       1526618.313      -6690804.472
10 0 59615   3240.000000  0       1883637.105       1576480.797      -6622542.951
10 0 59615   3270.000000  0       2093050.061       1623833.411      -6547552.690
10 0 59615   3300.000000  0       2300553.176       1668635.890      -6465908.358
10 0 59615   3330.000000  0       2505925.326       1710851.476      -6377691.364
10 0 59615   3360.000000  0       2708947.265       1750446.946      -6282989.780
10 0 59615   3390.000000  0       2909401.858       1787392.645      -6181898.266
10 0 59615   3420.000000  0       3107074.312       1821662.501      -6074517.985
10 0 59615   3450.000000  0       3301752.410       1853234.049      -5960956.512
10 0 59615   3480.000000  0       3493226.741       1882088.440      -5841327.742
10 0 59615   3510.000000  0       3681290.931       1908210.456      -5715751.778
10 0 59615   3540.000000  0       3865741.870       1931588.507      -5584354.826
10 0 59615   3570.000000  0       4046379.936       1952214.641      -5447269.080
99
